start=new Date('2022-01-06T00:00:00.000Z').valueOf();
sats=[{"CLASSIFICATION_TYPE":"U","EPHEMERIS_TYPE":"0","PERIOD":"95.593","COUNTRY_CODE":"US","MEAN_ANOMALY":"271.2867","NORAD_CAT_ID":"45364","TIME_SYSTEM":"UTC","ELEMENT_SET_NO":"999","FILE":"3265018","ECCENTRICITY":"0.00013890","EPOCH":"2022-01-05T17:55:31.892160","OBJECT_TYPE":"PAYLOAD","DECAY_DATE":null,"TLE_LINE2":"2 45364  53.0544 137.8674 0001389  88.8281 271.2867 15.06390339100448","GP_ID":"193284344","MEAN_MOTION_DDOT":"0.0000000000000","SEMIMAJOR_AXIS":"6925.378","TLE_LINE1":"1 45364U 20019E   22005.74689690 -.00000151  00000-0  87529-5 0  9996","LAUNCH_DATE":"2020-03-18","OBJECT_NAME":"STARLINK-1313","OBJECT_ID":"2020-019E","REV_AT_EPOCH":"10044","MEAN_MOTION_DOT":"-0.00000151","MEAN_ELEMENT_THEORY":"SGP4","RA_OF_ASC_NODE":"137.8674","PERIAPSIS":"546.281","INCLINATION":"53.0544","RCS_SIZE":"LARGE","APOAPSIS":"548.205","SITE":"AFETR","ARG_OF_PERICENTER":"88.8281","MEAN_MOTION":"15.06390339","BSTAR":"0.00000875290000","REF_FRAME":"TEME","CENTER_NAME":"EARTH"},{"TLE_LINE1":"1 45365U 20019F   22005.79963146  .00001554  00000-0  12582-3 0  9995","MEAN_MOTION_DDOT":"0.0000000000000","GP_ID":"193283127","SEMIMAJOR_AXIS":"6927.849","TLE_LINE2":"2 45365  53.0015 147.6383 0001735 100.0435 260.0749 15.05584524100288","DECAY_DATE":null,"OBJECT_TYPE":"PAYLOAD","EPOCH":"2022-01-05T19:11:28.158144","FILE":"3265018","ECCENTRICITY":"0.00017350","ELEMENT_SET_NO":"999","TIME_SYSTEM":"UTC","NORAD_CAT_ID":"45365","MEAN_ANOMALY":"260.0749","COUNTRY_CODE":"US","PERIOD":"95.644","EPHEMERIS_TYPE":"0","CLASSIFICATION_TYPE":"U","CENTER_NAME":"EARTH","REF_FRAME":"TEME","BSTAR":"0.00012582000000","MEAN_MOTION":"15.05584524","ARG_OF_PERICENTER":"100.0435","SITE":"AFETR","APOAPSIS":"550.916","RCS_SIZE":"LARGE","INCLINATION":"53.0015","PERIAPSIS":"548.512","RA_OF_ASC_NODE":"147.6383","MEAN_ELEMENT_THEORY":"SGP4","MEAN_MOTION_DOT":"0.00001554","REV_AT_EPOCH":"10028","OBJECT_ID":"2020-019F","OBJECT_NAME":"STARLINK-1317","LAUNCH_DATE":"2020-03-18"},{"CLASSIFICATION_TYPE":"U","EPHEMERIS_TYPE":"0","PERIOD":"95.593","COUNTRY_CODE":"US","MEAN_ANOMALY":"269.8047","NORAD_CAT_ID":"45366","TIME_SYSTEM":"UTC","ELEMENT_SET_NO":"999","ECCENTRICITY":"0.00022230","FILE":"3265018","OBJECT_TYPE":"PAYLOAD","EPOCH":"2022-01-05T16:53:10.699584","DECAY_DATE":null,"TLE_LINE2":"2 45366  53.0536 168.0514 0002223  90.3197 269.8047 15.06388016100039","GP_ID":"193283377","MEAN_MOTION_DDOT":"0.0000000000000","SEMIMAJOR_AXIS":"6925.385","TLE_LINE1":"1 45366U 20019G   22005.70359606  .00000551  00000-0  55911-4 0  9997","LAUNCH_DATE":"2020-03-18","OBJECT_NAME":"STARLINK-1262","OBJECT_ID":"2020-019G","REV_AT_EPOCH":"10003","MEAN_MOTION_DOT":"0.00000551","MEAN_ELEMENT_THEORY":"SGP4","RA_OF_ASC_NODE":"168.0514","PERIAPSIS":"545.711","INCLINATION":"53.0536","RCS_SIZE":"LARGE","SITE":"AFETR","APOAPSIS":"548.790","ARG_OF_PERICENTER":"90.3197","MEAN_MOTION":"15.06388016","BSTAR":"0.00005591100000","REF_FRAME":"TEME","CENTER_NAME":"EARTH"},{"RCS_SIZE":"LARGE","INCLINATION":"53.0551","PERIAPSIS":"545.622","RA_OF_ASC_NODE":"167.3758","MEAN_MOTION":"15.06391938","ARG_OF_PERICENTER":"91.3370","APOAPSIS":"548.855","SITE":"AFETR","BSTAR":"-0.00004369900000","CENTER_NAME":"EARTH","REF_FRAME":"TEME","LAUNCH_DATE":"2020-03-18","OBJECT_ID":"2020-019H","OBJECT_NAME":"STARLINK-1273","MEAN_MOTION_DOT":"-0.00000933","REV_AT_EPOCH":"10005","MEAN_ELEMENT_THEORY":"SGP4","ELEMENT_SET_NO":"999","EPOCH":"2022-01-05T20:36:05.945760","OBJECT_TYPE":"PAYLOAD","FILE":"3265018","ECCENTRICITY":"0.00023340","GP_ID":"193283626","MEAN_MOTION_DDOT":"0.0000000000000","SEMIMAJOR_AXIS":"6925.373","TLE_LINE2":"2 45367  53.0551 167.3758 0002334  91.3370 268.7886 15.06391938100054","DECAY_DATE":null,"TLE_LINE1":"1 45367U 20019H   22005.85840215 -.00000933  00000-0 -43699-4 0  9991","CLASSIFICATION_TYPE":"U","COUNTRY_CODE":"US","PERIOD":"95.593","EPHEMERIS_TYPE":"0","TIME_SYSTEM":"UTC","NORAD_CAT_ID":"45367","MEAN_ANOMALY":"268.7886"},{"ELEMENT_SET_NO":"999","OBJECT_TYPE":"PAYLOAD","EPOCH":"2022-01-05T18:18:05.935680","ECCENTRICITY":"0.00029330","FILE":"3265018","GP_ID":"193283845","SEMIMAJOR_AXIS":"6925.366","MEAN_MOTION_DDOT":"0.0000000000000","TLE_LINE2":"2 45368  53.0529 167.7885 0002933  99.6912 260.4409 15.06394314100043","DECAY_DATE":null,"TLE_LINE1":"1 45368U 20019J   22005.76256870  .00000696  00000-0  65637-4 0  9990","CLASSIFICATION_TYPE":"U","COUNTRY_CODE":"US","PERIOD":"95.593","EPHEMERIS_TYPE":"0","TIME_SYSTEM":"UTC","NORAD_CAT_ID":"45368","MEAN_ANOMALY":"260.4409","RCS_SIZE":"LARGE","INCLINATION":"53.0529","PERIAPSIS":"545.200","RA_OF_ASC_NODE":"167.7885","MEAN_MOTION":"15.06394314","ARG_OF_PERICENTER":"99.6912","SITE":"AFETR","APOAPSIS":"549.262","BSTAR":"0.00006563700000","CENTER_NAME":"EARTH","REF_FRAME":"TEME","LAUNCH_DATE":"2020-03-18","OBJECT_ID":"2020-019J","OBJECT_NAME":"STARLINK-1276","MEAN_MOTION_DOT":"0.00000696","REV_AT_EPOCH":"10004","MEAN_ELEMENT_THEORY":"SGP4"},{"CLASSIFICATION_TYPE":"U","COUNTRY_CODE":"US","PERIOD":"95.593","EPHEMERIS_TYPE":"0","TIME_SYSTEM":"UTC","NORAD_CAT_ID":"45369","MEAN_ANOMALY":"284.7796","ELEMENT_SET_NO":"999","OBJECT_TYPE":"PAYLOAD","EPOCH":"2022-01-05T19:52:17.508288","FILE":"3265018","ECCENTRICITY":"0.00020930","SEMIMAJOR_AXIS":"6925.397","GP_ID":"193282628","MEAN_MOTION_DDOT":"0.0000000000000","TLE_LINE2":"2 45369  53.0542 167.5077 0002093  75.3425 284.7796 15.06384110100059","DECAY_DATE":null,"TLE_LINE1":"1 45369U 20019K   22005.82798042  .00000033  00000-0  21157-4 0  9994","LAUNCH_DATE":"2020-03-18","OBJECT_ID":"2020-019K","OBJECT_NAME":"STARLINK-1277","MEAN_MOTION_DOT":"0.00000033","REV_AT_EPOCH":"10005","MEAN_ELEMENT_THEORY":"SGP4","RCS_SIZE":"LARGE","INCLINATION":"53.0542","PERIAPSIS":"545.813","RA_OF_ASC_NODE":"167.5077","MEAN_MOTION":"15.06384110","ARG_OF_PERICENTER":"75.3425","SITE":"AFETR","APOAPSIS":"548.712","BSTAR":"0.00002115700000","CENTER_NAME":"EARTH","REF_FRAME":"TEME"},{"TIME_SYSTEM":"UTC","NORAD_CAT_ID":"45370","MEAN_ANOMALY":"275.0016","COUNTRY_CODE":"US","PERIOD":"95.593","EPHEMERIS_TYPE":"0","CLASSIFICATION_TYPE":"U","TLE_LINE1":"1 45370U 20019L   22005.75152188  .00000520  00000-0  53866-4 0  9996","SEMIMAJOR_AXIS":"6925.374","GP_ID":"193282878","MEAN_MOTION_DDOT":"0.0000000000000","TLE_LINE2":"2 45370  53.0554 167.8338 0002206  85.1225 275.0016 15.06391861100048","DECAY_DATE":null,"EPOCH":"2022-01-05T18:02:11.490432","OBJECT_TYPE":"PAYLOAD","ECCENTRICITY":"0.00022060","FILE":"3265018","ELEMENT_SET_NO":"999","MEAN_ELEMENT_THEORY":"SGP4","MEAN_MOTION_DOT":"0.00000520","REV_AT_EPOCH":"10004","OBJECT_ID":"2020-019L","OBJECT_NAME":"STARLINK-1281","LAUNCH_DATE":"2020-03-18","CENTER_NAME":"EARTH","REF_FRAME":"TEME","BSTAR":"0.00005386600000","MEAN_MOTION":"15.06391861","ARG_OF_PERICENTER":"85.1225","SITE":"AFETR","APOAPSIS":"548.766","RCS_SIZE":"LARGE","INCLINATION":"53.0554","RA_OF_ASC_NODE":"167.8338","PERIAPSIS":"545.711"},{"NORAD_CAT_ID":"45371","MEAN_ANOMALY":"268.5753","TIME_SYSTEM":"UTC","CLASSIFICATION_TYPE":"U","EPHEMERIS_TYPE":"0","COUNTRY_CODE":"US","PERIOD":"95.592","TLE_LINE2":"2 45371  53.0545 167.4061 0002428  91.5514 268.5753 15.06395969100055","DECAY_DATE":null,"GP_ID":"193284126","SEMIMAJOR_AXIS":"6925.361","MEAN_MOTION_DDOT":"0.0000000000000","TLE_LINE1":"1 45371U 20019M   22005.84734345 -.00001228  00000-0 -63512-4 0  9995","ELEMENT_SET_NO":"999","ECCENTRICITY":"0.00024280","FILE":"3265018","EPOCH":"2022-01-05T20:20:10.474080","OBJECT_TYPE":"PAYLOAD","MEAN_MOTION_DOT":"-0.00001228","REV_AT_EPOCH":"10005","MEAN_ELEMENT_THEORY":"SGP4","LAUNCH_DATE":"2020-03-18","OBJECT_ID":"2020-019M","OBJECT_NAME":"STARLINK-1287","BSTAR":"-0.00006351200000","REF_FRAME":"TEME","CENTER_NAME":"EARTH","INCLINATION":"53.0545","PERIAPSIS":"545.544","RA_OF_ASC_NODE":"167.4061","RCS_SIZE":"LARGE","SITE":"AFETR","APOAPSIS":"548.907","MEAN_MOTION":"15.06395969","ARG_OF_PERICENTER":"91.5514"},{"CENTER_NAME":"EARTH","REF_FRAME":"TEME","BSTAR":"0.00005616000000","ARG_OF_PERICENTER":"91.1734","MEAN_MOTION":"15.06402631","SITE":"AFETR","APOAPSIS":"548.701","RCS_SIZE":"LARGE","PERIAPSIS":"545.710","RA_OF_ASC_NODE":"167.3554","INCLINATION":"53.0543","MEAN_ELEMENT_THEORY":"SGP4","REV_AT_EPOCH":"10005","MEAN_MOTION_DOT":"0.00000555","OBJECT_NAME":"STARLINK-1288","OBJECT_ID":"2020-019N","LAUNCH_DATE":"2020-03-18","TLE_LINE1":"1 45372U 20019N   22005.86208712  .00000555  00000-0  56160-4 0  9993","GP_ID":"193284345","SEMIMAJOR_AXIS":"6925.340","MEAN_MOTION_DDOT":"0.0000000000000","DECAY_DATE":null,"TLE_LINE2":"2 45372  53.0543 167.3554 0002159  91.1734 268.9502 15.06402631100052","OBJECT_TYPE":"PAYLOAD","EPOCH":"2022-01-05T20:41:24.327168","FILE":"3265018","ECCENTRICITY":"0.00021590","ELEMENT_SET_NO":"999","TIME_SYSTEM":"UTC","MEAN_ANOMALY":"268.9502","NORAD_CAT_ID":"45372","PERIOD":"95.592","COUNTRY_CODE":"US","EPHEMERIS_TYPE":"0","CLASSIFICATION_TYPE":"U"},{"OBJECT_ID":"2020-019P","OBJECT_NAME":"STARLINK-1295","LAUNCH_DATE":"2020-03-18","MEAN_ELEMENT_THEORY":"SGP4","MEAN_MOTION_DOT":"-0.00000685","REV_AT_EPOCH":"10005","SITE":"AFETR","APOAPSIS":"548.973","MEAN_MOTION":"15.06396560","ARG_OF_PERICENTER":"90.9356","INCLINATION":"53.0532","RA_OF_ASC_NODE":"167.4299","PERIAPSIS":"545.475","RCS_SIZE":"LARGE","REF_FRAME":"TEME","CENTER_NAME":"EARTH","BSTAR":"-0.00002702900000","EPHEMERIS_TYPE":"0","COUNTRY_CODE":"US","PERIOD":"95.592","CLASSIFICATION_TYPE":"U","NORAD_CAT_ID":"45373","MEAN_ANOMALY":"269.1922","TIME_SYSTEM":"UTC","ECCENTRICITY":"0.00025260","FILE":"3265018","EPOCH":"2022-01-05T20:14:52.255968","OBJECT_TYPE":"PAYLOAD","ELEMENT_SET_NO":"999","TLE_LINE1":"1 45373U 20019P   22005.84366037 -.00000685  00000-0 -27029-4 0  9995","TLE_LINE2":"2 45373  53.0532 167.4299 0002526  90.9356 269.1922 15.06396560100055","DECAY_DATE":null,"GP_ID":"193283128","SEMIMAJOR_AXIS":"6925.359","MEAN_MOTION_DDOT":"0.0000000000000"}];
